[{"OBJECT_NAME":"STARLINK-30993","OBJECT_ID":"2023-186S","EPOCH":"2026-03-09T00:33:51.495552","MEAN_MOTION":15.27561669,"ECCENTRICITY":0.00018117,"INCLINATION":43.0032,"RA_OF_ASC_NODE":67.4606,"ARG_OF_PERICENTER":277.2444,"MEAN_ANOMALY":82.8202,"EPHEMERIS_TYPE":0,"CLASSIFICATION_TYPE":"U","NORAD_CAT_ID":58489,"ELEMENT_SET_NO":999,"REV_AT_EPOCH":12578,"BSTAR":0.0002212858,"MEAN_MOTION_DOT":5.829e-5,"MEAN_MOTION_DDOT":0},{"OBJECT_NAME":"CZ-4C R\/B","OBJECT_ID":"2022-039B","EPOCH":"2026-03-09T15:51:32.485824","MEAN_MOTION":15.03008334,"ECCENTRICITY":0.0113659,"INCLINATION":98.2525,"RA_OF_ASC_NODE":105.9247,"ARG_OF_PERICENTER":45.8852,"MEAN_ANOMALY":315.1654,"EPHEMERIS_TYPE":0,"CLASSIFICATION_TYPE":"U","NORAD_CAT_ID":52258,"ELEMENT_SET_NO":999,"REV_AT_EPOCH":21291,"BSTAR":0.00022979194,"MEAN_MOTION_DOT":3.483e-5,"MEAN_MOTION_DDOT":0}]
